IRIDIUM 112             
1 41925U 17003J   25070.84734167  .00000087  00000+0  24167-4 0  9994
2 41925  86.3912 281.4864 0002188  92.0079 268.1367 14.34217653427003
IRIDIUM 111             
1 41926U 17003K   25070.62535092 -.00000129  00000+0 -53266-4 0  9998
2 41926  86.3914 281.6396 0001963  84.3697 275.7723 14.34216629426953
IRIDIUM 113             
1 42803U 17039A   25070.67508351  .00000123  00000+0  37004-4 0  9999
2 42803  86.4033 155.4962 0002541 103.5155 256.6324 14.34218451404893
IRIDIUM 123             
1 42804U 17039B   25070.85609849  .00000008  00000+0 -41320-5 0  9994
2 42804  86.4045 186.8361 0002014  90.6228 269.5199 14.34217842403682
IRIDIUM 120             
1 42805U 17039C   25070.94781520  .00000535  00000+0  18414-3 0  9992
2 42805  86.4020 155.2247 0001919  91.9344 268.2071 14.34217812404925
IRIDIUM 115             
1 42806U 17039D   25070.95920906  .00000739  00000+0  21361-3 0  9998
2 42806  86.4557 155.2850 0002525  79.1770 280.9715 14.43280901407597
IRIDIUM 118             
1 42807U 17039E   25070.81804383 -.00000110  00000+0 -46487-4 0  9996
2 42807  86.4043 186.8519 0002059 100.2771 259.8657 14.34217372403676
IRIDIUM 117             
1 42808U 17039F   25070.83705999  .00000580  00000+0  19989-3 0  9997
2 42808  86.4042 186.8061 0002225  88.7370 271.4080 14.34223508403700
